{
    "week": 288,
    "satellites": [
        {
            "Name": "GSAT0218 (GALILEO 22)",
            "Line1": "1 43058U 17079D   24290.28841169 -.00000010  00000+0  00000+0 0  9990",
            "Line2": "2 43058  55.2909 238.2604 0004540 281.4698  78.4416  1.70473705 42637",
            "SatelliteNumber": "43058",
            "Classification": "U",
            "LaunchYear": "17",
            "LaunchNumber": "079",
            "PieceOfLaunch": "D",
            "EpochYear": "24",
            "EpochDay": 290.28841169,
            "FirstDerivativeMeanMotion": -1e-07,
            "SecondDerivativeMeanMotion": "00000+0",
            "BSTAR": "00000+0",
            "SetNumber": "999",
            "Inclination": 55.2909,
            "RAAN": 238.2604,
            "Eccentricity": 0.000454,
            "ArgumentOfPerigee": 281.4698,
            "MeanAnomaly": 78.4416,
            "MeanMotion": 1.70473705,
            "RevolutionNumber": "4263"
        },
        {
            "Name": "GSAT0221 (GALILEO 25)",
            "Line1": "1 43564U 18060A   24290.18967262 -.00000085  00000+0  00000+0 0  9997",
            "Line2": "2 43564  57.2985 358.2124 0005012 263.6440  96.3576  1.70475971 38781",
            "SatelliteNumber": "43564",
            "Classification": "U",
            "LaunchYear": "18",
            "LaunchNumber": "060",
            "PieceOfLaunch": "A",
            "EpochYear": "24",
            "EpochDay": 290.18967262,
            "FirstDerivativeMeanMotion": -8.5e-07,
            "SecondDerivativeMeanMotion": "00000+0",
            "BSTAR": "00000+0",
            "SetNumber": "999",
            "Inclination": 57.2985,
            "RAAN": 358.2124,
            "Eccentricity": 0.0005012,
            "ArgumentOfPerigee": 263.644,
            "MeanAnomaly": 96.3576,
            "MeanMotion": 1.70475971,
            "RevolutionNumber": "3878"
        },
        {
            "Name": "GSAT0222 (GALILEO 26)",
            "Line1": "1 43565U 18060B   24290.99494944 -.00000088  00000+0  00000+0 0  9992",
            "Line2": "2 43565  57.3019 358.1927 0004976 236.9746 123.0372  1.70475792 38841",
            "SatelliteNumber": "43565",
            "Classification": "U",
            "LaunchYear": "18",
            "LaunchNumber": "060",
            "PieceOfLaunch": "B",
            "EpochYear": "24",
            "EpochDay": 290.99494944,
            "FirstDerivativeMeanMotion": -8.8e-07,
            "SecondDerivativeMeanMotion": "00000+0",
            "BSTAR": "00000+0",
            "SetNumber": "999",
            "Inclination": 57.3019,
            "RAAN": 358.1927,
            "Eccentricity": 0.0004976,
            "ArgumentOfPerigee": 236.9746,
            "MeanAnomaly": 123.0372,
            "MeanMotion": 1.70475792,
            "RevolutionNumber": "3884"
        },
        {
            "Name": "GSAT0219 (GALILEO 23)",
            "Line1": "1 43566U 18060C   24291.21665138 -.00000088  00000+0  00000+0 0  9994",
            "Line2": "2 43566  57.3011 358.1885 0004191 267.5072  92.5047  1.70475929 38827",
            "SatelliteNumber": "43566",
            "Classification": "U",
            "LaunchYear": "18",
            "LaunchNumber": "060",
            "PieceOfLaunch": "C",
            "EpochYear": "24",
            "EpochDay": 291.21665138,
            "FirstDerivativeMeanMotion": -8.8e-07,
            "SecondDerivativeMeanMotion": "00000+0",
            "BSTAR": "00000+0",
            "SetNumber": "999",
            "Inclination": 57.3011,
            "RAAN": 358.1885,
            "Eccentricity": 0.0004191,
            "ArgumentOfPerigee": 267.5072,
            "MeanAnomaly": 92.5047,
            "MeanMotion": 1.70475929,
            "RevolutionNumber": "3882"
        },
        {
            "Name": "GSAT0220 (GALILEO 24)",
            "Line1": "1 43567U 18060D   24288.50443247 -.00000082  00000+0  00000+0 0  9992",
            "Line2": "2 43567  57.3011 358.2626 0004062 261.6775  98.3324  1.70475752 38752",
            "SatelliteNumber": "43567",
            "Classification": "U",
            "LaunchYear": "18",
            "LaunchNumber": "060",
            "PieceOfLaunch": "D",
            "EpochYear": "24",
            "EpochDay": 288.50443247,
            "FirstDerivativeMeanMotion": -8.2e-07,
            "SecondDerivativeMeanMotion": "00000+0",
            "BSTAR": "00000+0",
            "SetNumber": "999",
            "Inclination": 57.3011,
            "RAAN": 358.2626,
            "Eccentricity": 0.0004062,
            "ArgumentOfPerigee": 261.6775,
            "MeanAnomaly": 98.3324,
            "MeanMotion": 1.70475752,
            "RevolutionNumber": "3875"
        },
        {
            "Name": "GSAT0223 (GALILEO 27)",
            "Line1": "1 49809U 21116A   24291.28942355 -.00000089  00000+0  00000+0 0  9993",
            "Line2": "2 49809  57.2912 358.0804 0004130 218.2695 141.4585  1.70475780 17811",
            "SatelliteNumber": "49809",
            "Classification": "U",
            "LaunchYear": "21",
            "LaunchNumber": "116",
            "PieceOfLaunch": "A",
            "EpochYear": "24",
            "EpochDay": 291.28942355,
            "FirstDerivativeMeanMotion": -8.9e-07,
            "SecondDerivativeMeanMotion": "00000+0",
            "BSTAR": "00000+0",
            "SetNumber": "999",
            "Inclination": 57.2912,
            "RAAN": 358.0804,
            "Eccentricity": 0.000413,
            "ArgumentOfPerigee": 218.2695,
            "MeanAnomaly": 141.4585,
            "MeanMotion": 1.7047578,
            "RevolutionNumber": "1781"
        },
        {
            "Name": "GSAT0224 (GALILEO 28)",
            "Line1": "1 49810U 21116B   24288.17644205 -.00000081  00000+0  00000+0 0  9994",
            "Line2": "2 49810  57.2922 358.1636 0003316 211.1940 150.5526  1.70475978 17790",
            "SatelliteNumber": "49810",
            "Classification": "U",
            "LaunchYear": "21",
            "LaunchNumber": "116",
            "PieceOfLaunch": "B",
            "EpochYear": "24",
            "EpochDay": 288.17644205,
            "FirstDerivativeMeanMotion": -8.1e-07,
            "SecondDerivativeMeanMotion": "00000+0",
            "BSTAR": "00000+0",
            "SetNumber": "999",
            "Inclination": 57.2922,
            "RAAN": 358.1636,
            "Eccentricity": 0.0003316,
            "ArgumentOfPerigee": 211.194,
            "MeanAnomaly": 150.5526,
            "MeanMotion": 1.70475978,
            "RevolutionNumber": "1779"
        },
        {
            "Name": "GSAT0225 (GALILEO 29)",
            "Line1": "1 59598U 24079A   24291.41855080  .00000063  00000+0  00000+0 0  9994",
            "Line2": "2 59598  54.7635 118.0873 0002592 159.8048  22.5655  1.70474298  2952",
            "SatelliteNumber": "59598",
            "Classification": "U",
            "LaunchYear": "24",
            "LaunchNumber": "079",
            "PieceOfLaunch": "A",
            "EpochYear": "24",
            "EpochDay": 291.4185508,
            "FirstDerivativeMeanMotion": 6.3e-07,
            "SecondDerivativeMeanMotion": "00000+0",
            "BSTAR": "00000+0",
            "SetNumber": "999",
            "Inclination": 54.7635,
            "RAAN": 118.0873,
            "Eccentricity": 0.0002592,
            "ArgumentOfPerigee": 159.8048,
            "MeanAnomaly": 22.5655,
            "MeanMotion": 1.70474298,
            "RevolutionNumber": "295"
        },
        {
            "Name": "GSAT0227 (GALILEO 30)",
            "Line1": "1 59600U 24079C   24290.13168373  .00000072  00000+0  00000+0 0  9998",
            "Line2": "2 59600  54.7571 118.1239 0003753 111.4657 248.6498  1.70474359  2989",
            "SatelliteNumber": "59600",
            "Classification": "U",
            "LaunchYear": "24",
            "LaunchNumber": "079",
            "PieceOfLaunch": "C",
            "EpochYear": "24",
            "EpochDay": 290.13168373,
            "FirstDerivativeMeanMotion": 7.2e-07,
            "SecondDerivativeMeanMotion": "00000+0",
            "BSTAR": "00000+0",
            "SetNumber": "999",
            "Inclination": 54.7571,
            "RAAN": 118.1239,
            "Eccentricity": 0.0003753,
            "ArgumentOfPerigee": 111.4657,
            "MeanAnomaly": 248.6498,
            "MeanMotion": 1.70474359,
            "RevolutionNumber": "298"
        },
        {
            "Name": "GSAT0232 (GALILEO 32)",
            "Line1": "1 61182U 24167A   24290.03569535 -.00000009  00000+0  00000+0 0  9999",
            "Line2": "2 61182  55.4033 238.0223 0016811 273.8375  85.9340  1.73176847   487",
            "SatelliteNumber": "61182",
            "Classification": "U",
            "LaunchYear": "24",
            "LaunchNumber": "167",
            "PieceOfLaunch": "A",
            "EpochYear": "24",
            "EpochDay": 290.03569535,
            "FirstDerivativeMeanMotion": -9e-08,
            "SecondDerivativeMeanMotion": "00000+0",
            "BSTAR": "00000+0",
            "SetNumber": "999",
            "Inclination": 55.4033,
            "RAAN": 238.0223,
            "Eccentricity": 0.0016811,
            "ArgumentOfPerigee": 273.8375,
            "MeanAnomaly": 85.934,
            "MeanMotion": 1.73176847,
            "RevolutionNumber": "48"
        }
    ]
}